start=new Date('2021-09-15T00:00:00.000Z').valueOf();
sats=[{"COUNTRY_CODE":"US","MEAN_ANOMALY":"283.8072","OBJECT_ID":"2021-044M","SITE":"AFETR","GP_ID":"184698304","MEAN_MOTION_DOT":"-0.00000507","RA_OF_ASC_NODE":"271.4857","DECAY_DATE":null,"MEAN_MOTION":"15.06397515","REV_AT_EPOCH":"1693","EPHEMERIS_TYPE":"0","ECCENTRICITY":"0.00005440","SEMIMAJOR_AXIS":"6925.356","TLE_LINE1":"1 48649U 21044M   21257.45171662 -.00000507  00000-0 -15163-4 0  9995","TIME_SYSTEM":"UTC","APOAPSIS":"547.598","BSTAR":"-0.00001516300000","CENTER_NAME":"EARTH","MEAN_MOTION_DDOT":"0.0000000000000","REF_FRAME":"TEME","EPOCH":"2021-09-14T10:50:28.315968","NORAD_CAT_ID":"48649","PERIAPSIS":"546.844","TLE_LINE2":"2 48649  53.0498 271.4857 0000544  76.2978 283.8072 15.06397515 16939","RCS_SIZE":"LARGE","ARG_OF_PERICENTER":"76.2978","ELEMENT_SET_NO":"999","INCLINATION":"53.0498","FILE":"3115492","CLASSIFICATION_TYPE":"U","OBJECT_NAME":"STARLINK-2673","MEAN_ELEMENT_THEORY":"SGP4","PERIOD":"95.592","OBJECT_TYPE":"PAYLOAD","LAUNCH_DATE":"2021-05-26"},{"ARG_OF_PERICENTER":"35.3687","TLE_LINE2":"2 48650  53.0524 271.4737 0000138  35.3687 324.7311 15.06391515 16935","RCS_SIZE":"LARGE","EPOCH":"2021-09-14T10:45:10.477152","NORAD_CAT_ID":"48650","PERIAPSIS":"547.144","CENTER_NAME":"EARTH","MEAN_MOTION_DDOT":"0.0000000000000","REF_FRAME":"TEME","LAUNCH_DATE":"2021-05-26","MEAN_ELEMENT_THEORY":"SGP4","PERIOD":"95.593","OBJECT_TYPE":"PAYLOAD","CLASSIFICATION_TYPE":"U","OBJECT_NAME":"STARLINK-2672","ELEMENT_SET_NO":"999","INCLINATION":"53.0524","FILE":"3115492","MEAN_MOTION_DOT":"0.00000796","GP_ID":"184698461","SITE":"AFETR","COUNTRY_CODE":"US","MEAN_ANOMALY":"324.7311","OBJECT_ID":"2021-044N","TLE_LINE1":"1 48650U 21044N   21257.44803793  .00000796  00000-0  72274-4 0  9997","APOAPSIS":"547.335","BSTAR":"0.00007227400000","TIME_SYSTEM":"UTC","EPHEMERIS_TYPE":"0","ECCENTRICITY":"0.00001380","SEMIMAJOR_AXIS":"6925.375","REV_AT_EPOCH":"1693","DECAY_DATE":null,"RA_OF_ASC_NODE":"271.4737","MEAN_MOTION":"15.06391515"},{"LAUNCH_DATE":"2021-05-26","MEAN_ELEMENT_THEORY":"SGP4","PERIOD":"95.592","OBJECT_TYPE":"PAYLOAD","CLASSIFICATION_TYPE":"U","OBJECT_NAME":"STARLINK-2731","ELEMENT_SET_NO":"999","INCLINATION":"53.0534","FILE":"3115492","ARG_OF_PERICENTER":"90.3656","RCS_SIZE":"LARGE","TLE_LINE2":"2 48651  53.0534 271.4885 0000197  90.3656 269.7356 15.06397286 16931","EPOCH":"2021-09-14T10:39:51.650784","NORAD_CAT_ID":"48651","PERIAPSIS":"547.085","CENTER_NAME":"EARTH","MEAN_MOTION_DDOT":"0.0000000000000","REF_FRAME":"TEME","TLE_LINE1":"1 48651U 21044P   21257.44434781  .00000850  00000-0  75921-4 0  9998","APOAPSIS":"547.358","TIME_SYSTEM":"UTC","BSTAR":"0.00007592100000","ECCENTRICITY":"0.00001970","EPHEMERIS_TYPE":"0","SEMIMAJOR_AXIS":"6925.357","REV_AT_EPOCH":"1693","RA_OF_ASC_NODE":"271.4885","DECAY_DATE":null,"MEAN_MOTION":"15.06397286","MEAN_MOTION_DOT":"0.00000850","GP_ID":"184698231","SITE":"AFETR","COUNTRY_CODE":"US","OBJECT_ID":"2021-044P","MEAN_ANOMALY":"269.7356"},{"COUNTRY_CODE":"US","MEAN_ANOMALY":"276.5036","OBJECT_ID":"2021-044Q","SITE":"AFETR","GP_ID":"184724684","MEAN_MOTION_DOT":"-0.00001331","DECAY_DATE":null,"RA_OF_ASC_NODE":"269.7120","MEAN_MOTION":"15.06392581","REV_AT_EPOCH":"1699","ECCENTRICITY":"0.00005260","EPHEMERIS_TYPE":"0","SEMIMAJOR_AXIS":"6925.371","TLE_LINE1":"1 48652U 21044Q   21257.83874333 -.00001331  00000-0 -70528-4 0  9998","BSTAR":"-0.00007052800000","APOAPSIS":"547.601","TIME_SYSTEM":"UTC","CENTER_NAME":"EARTH","REF_FRAME":"TEME","MEAN_MOTION_DDOT":"0.0000000000000","NORAD_CAT_ID":"48652","EPOCH":"2021-09-14T20:07:47.423712","PERIAPSIS":"546.872","RCS_SIZE":"LARGE","TLE_LINE2":"2 48652  53.0549 269.7120 0000526  83.6013 276.5036 15.06392581 16998","ARG_OF_PERICENTER":"83.6013","INCLINATION":"53.0549","ELEMENT_SET_NO":"999","FILE":"3115650","OBJECT_NAME":"STARLINK-2727","CLASSIFICATION_TYPE":"U","MEAN_ELEMENT_THEORY":"SGP4","OBJECT_TYPE":"PAYLOAD","PERIOD":"95.593","LAUNCH_DATE":"2021-05-26"},{"OBJECT_NAME":"STARLINK-2720","CLASSIFICATION_TYPE":"U","INCLINATION":"53.0544","ELEMENT_SET_NO":"999","FILE":"3115650","LAUNCH_DATE":"2021-05-26","MEAN_ELEMENT_THEORY":"SGP4","OBJECT_TYPE":"PAYLOAD","PERIOD":"95.593","NORAD_CAT_ID":"48653","EPOCH":"2021-09-14T20:02:29.421600","PERIAPSIS":"546.975","CENTER_NAME":"EARTH","REF_FRAME":"TEME","MEAN_MOTION_DDOT":"0.0000000000000","ARG_OF_PERICENTER":"57.9284","RCS_SIZE":"LARGE","TLE_LINE2":"2 48653  53.0544 269.7331 0000384  57.9284 302.1742 15.06390981 16996","REV_AT_EPOCH":"1699","RA_OF_ASC_NODE":"269.7331","DECAY_DATE":null,"MEAN_MOTION":"15.06390981","TIME_SYSTEM":"UTC","TLE_LINE1":"1 48653U 21044R   21257.83506275 -.00001109  00000-0 -55641-4 0  9998","APOAPSIS":"547.507","BSTAR":"-0.00005564100000","EPHEMERIS_TYPE":"0","ECCENTRICITY":"0.00003840","SEMIMAJOR_AXIS":"6925.376","SITE":"AFETR","MEAN_ANOMALY":"302.1742","COUNTRY_CODE":"US","OBJECT_ID":"2021-044R","MEAN_MOTION_DOT":"-0.00001109","GP_ID":"184724778"},{"SITE":"AFETR","COUNTRY_CODE":"US","MEAN_ANOMALY":"276.2136","OBJECT_ID":"2021-044S","MEAN_MOTION_DOT":"0.00000621","GP_ID":"184698784","REV_AT_EPOCH":"1693","MEAN_MOTION":"15.06392207","DECAY_DATE":null,"RA_OF_ASC_NODE":"271.5436","APOAPSIS":"547.621","TLE_LINE1":"1 48654U 21044S   21257.43329152  .00000621  00000-0  60574-4 0  9999","BSTAR":"0.00006057400000","TIME_SYSTEM":"UTC","SEMIMAJOR_AXIS":"6925.372","EPHEMERIS_TYPE":"0","ECCENTRICITY":"0.00005540","PERIAPSIS":"546.854","NORAD_CAT_ID":"48654","EPOCH":"2021-09-14T10:23:56.387328","REF_FRAME":"TEME","MEAN_MOTION_DDOT":"0.0000000000000","CENTER_NAME":"EARTH","ARG_OF_PERICENTER":"83.8916","TLE_LINE2":"2 48654  53.0557 271.5436 0000554  83.8916 276.2136 15.06392207 16932","RCS_SIZE":"LARGE","OBJECT_NAME":"STARLINK-2651","CLASSIFICATION_TYPE":"U","FILE":"3115492","INCLINATION":"53.0557","ELEMENT_SET_NO":"999","LAUNCH_DATE":"2021-05-26","OBJECT_TYPE":"PAYLOAD","PERIOD":"95.593","MEAN_ELEMENT_THEORY":"SGP4"},{"SITE":"AFETR","MEAN_ANOMALY":"247.8778","COUNTRY_CODE":"US","OBJECT_ID":"2021-044T","MEAN_MOTION_DOT":"0.00001567","GP_ID":"184698554","REV_AT_EPOCH":"1693","RA_OF_ASC_NODE":"271.5558","DECAY_DATE":null,"MEAN_MOTION":"15.06398074","BSTAR":"0.00012402000000","TLE_LINE1":"1 48655U 21044T   21257.42959999  .00001567  00000-0  12402-3 0  9993","APOAPSIS":"547.537","TIME_SYSTEM":"UTC","EPHEMERIS_TYPE":"0","ECCENTRICITY":"0.00004580","SEMIMAJOR_AXIS":"6925.354","NORAD_CAT_ID":"48655","EPOCH":"2021-09-14T10:18:37.439136","PERIAPSIS":"546.902","CENTER_NAME":"EARTH","REF_FRAME":"TEME","MEAN_MOTION_DDOT":"0.0000000000000","ARG_OF_PERICENTER":"112.2259","TLE_LINE2":"2 48655  53.0548 271.5558 0000458 112.2259 247.8778 15.06398074 16932","RCS_SIZE":"LARGE","OBJECT_NAME":"STARLINK-2657","CLASSIFICATION_TYPE":"U","INCLINATION":"53.0548","ELEMENT_SET_NO":"999","FILE":"3115492","LAUNCH_DATE":"2021-05-26","MEAN_ELEMENT_THEORY":"SGP4","OBJECT_TYPE":"PAYLOAD","PERIOD":"95.592"},{"MEAN_MOTION":"15.06397440","DECAY_DATE":null,"RA_OF_ASC_NODE":"271.5692","REV_AT_EPOCH":"1693","SEMIMAJOR_AXIS":"6925.356","ECCENTRICITY":"0.00008360","EPHEMERIS_TYPE":"0","APOAPSIS":"547.800","TLE_LINE1":"1 48656U 21044U   21257.42591629  .00000654  00000-0  62781-4 0  9998","TIME_SYSTEM":"UTC","BSTAR":"0.00006278100000","MEAN_ANOMALY":"294.6912","COUNTRY_CODE":"US","OBJECT_ID":"2021-044U","SITE":"AFETR","GP_ID":"184698715","MEAN_MOTION_DOT":"0.00000654","FILE":"3115492","ELEMENT_SET_NO":"999","INCLINATION":"53.0545","CLASSIFICATION_TYPE":"U","OBJECT_NAME":"STARLINK-2701","PERIOD":"95.592","OBJECT_TYPE":"PAYLOAD","MEAN_ELEMENT_THEORY":"SGP4","LAUNCH_DATE":"2021-05-26","MEAN_MOTION_DDOT":"0.0000000000000","REF_FRAME":"TEME","CENTER_NAME":"EARTH","PERIAPSIS":"546.642","EPOCH":"2021-09-14T10:13:19.167456","NORAD_CAT_ID":"48656","RCS_SIZE":"LARGE","TLE_LINE2":"2 48656  53.0545 271.5692 0000836  65.4164 294.6912 15.06397440 16939","ARG_OF_PERICENTER":"65.4164"},{"PERIAPSIS":"546.845","NORAD_CAT_ID":"48657","EPOCH":"2021-09-14T10:08:00.983904","REF_FRAME":"TEME","MEAN_MOTION_DDOT":"0.0000000000000","CENTER_NAME":"EARTH","ARG_OF_PERICENTER":"59.3783","RCS_SIZE":"LARGE","TLE_LINE2":"2 48657  53.0544 271.5863 0000544  59.3783 300.7260 15.06397351 16930","OBJECT_NAME":"STARLINK-2734","CLASSIFICATION_TYPE":"U","FILE":"3115492","INCLINATION":"53.0544","ELEMENT_SET_NO":"999","LAUNCH_DATE":"2021-05-26","OBJECT_TYPE":"PAYLOAD","PERIOD":"95.592","MEAN_ELEMENT_THEORY":"SGP4","SITE":"AFETR","MEAN_ANOMALY":"300.7260","COUNTRY_CODE":"US","OBJECT_ID":"2021-044V","MEAN_MOTION_DOT":"-0.00000898","GP_ID":"184698305","REV_AT_EPOCH":"1693","MEAN_MOTION":"15.06397351","RA_OF_ASC_NODE":"271.5863","DECAY_DATE":null,"TLE_LINE1":"1 48657U 21044V   21257.42223361 -.00000898  00000-0 -41430-4 0  9994","BSTAR":"-0.00004143000000","APOAPSIS":"547.598","TIME_SYSTEM":"UTC","SEMIMAJOR_AXIS":"6925.357","EPHEMERIS_TYPE":"0","ECCENTRICITY":"0.00005440"},{"INCLINATION":"53.0560","ELEMENT_SET_NO":"999","FILE":"3115492","OBJECT_NAME":"STARLINK-2647","CLASSIFICATION_TYPE":"U","MEAN_ELEMENT_THEORY":"SGP4","OBJECT_TYPE":"PAYLOAD","PERIOD":"95.592","LAUNCH_DATE":"2021-05-26","CENTER_NAME":"EARTH","REF_FRAME":"TEME","MEAN_MOTION_DDOT":"0.0000000000000","NORAD_CAT_ID":"48658","EPOCH":"2021-09-14T10:02:42.711360","PERIAPSIS":"546.401","RCS_SIZE":"LARGE","TLE_LINE2":"2 48658  53.0560 271.6096 0001182  98.9160 261.1962 15.06398022 16930","ARG_OF_PERICENTER":"98.9160","RA_OF_ASC_NODE":"271.6096","DECAY_DATE":null,"MEAN_MOTION":"15.06398022","REV_AT_EPOCH":"1693","EPHEMERIS_TYPE":"0","ECCENTRICITY":"0.00011820","SEMIMAJOR_AXIS":"6925.355","BSTAR":"-0.00003075700000","TLE_LINE1":"1 48658U 21044W   21257.41854990 -.00000739  00000-0 -30757-4 0  9996","APOAPSIS":"548.038","TIME_SYSTEM":"UTC","COUNTRY_CODE":"US","MEAN_ANOMALY":"261.1962","OBJECT_ID":"2021-044W","SITE":"AFETR","GP_ID":"184698462","MEAN_MOTION_DOT":"-0.00000739"}];
